HST                     
1 20580U 90037B   26171.07700591  .00005529  00000+0  17304-3 0  9998
2 20580  28.4722  60.8244 0001639 173.2571 186.8048 15.30775367789015
POLAR                   
1 23802U 96013A   26171.11796646  .00000083  00000+0  00000+0 0  9990
2 23802  79.8578 227.0179 6473338 208.9775  90.0485  1.29846117144892
SWAS                    
1 25560U 98071A   26171.39495998  .00002144  00000+0  13942-3 0  9998
2 25560  69.8943 219.2467 0008695 256.5318 103.4877 15.09639514497753
CXO                     
1 25867U 99040B   26172.02247085  .00000453  00000+0  00000+0 0  9996
2 25867  56.2474 116.4966 7828329 310.2765   0.2930  0.37807394 17333
XMM-NEWTON              
1 25989U 99066A   26173.33565867 -.00000042  00000+0  00000+0 0  9990
2 25989  64.4564 282.9193 4671880  64.8135   0.0790  0.50128039 23031
TERRA                   
1 25994U 99068A   26171.44083515  .00000275  00000+0  65041-4 0  9991
2 25994  97.9454 220.8581 0001842 178.7606 238.1366 14.61105267410080
CLUSTER II-FM7 (SAMBA)  
1 26410U 00041A   26172.60140140  .00004700  00000+0  00000+0 0  9991
2 26410 149.9158  51.6298 9060197 268.8497 359.5612  0.44827461 20334
CLUSTER II-FM8 (TANGO)  
1 26464U 00045B   26170.68964110  .00004777  00000+0  00000+0 0  9995
2 26464 150.1455  52.4796 9063456 269.5212   2.6313  0.44407361 20329
ODIN                    
1 26702U 01007A   26171.07824256  .00171166  00000+0  10523-2 0  9990
2 26702  97.3813 212.2073 0006749 140.3393 219.8368 15.76711423389853
TIMED                   
1 26998U 01055B   26171.42031838  .00000698  00000+0  66991-4 0  9998
2 26998  74.0670 228.5087 0001295 331.0039  29.1074 14.95299607331303
CORIOLIS                
1 27640U 03001A   26171.43857340  .00000069  00000+0  53062-4 0  9998
2 27640  98.7125 178.2738 0013553 199.0083 161.0590 14.19945602214680
SORCE                   
1 27651U 03004A   26171.39382147  .00001922  00000+0  14831-3 0  9995
2 27651  39.9898 243.3830 0016156  73.8065 286.4506 15.03725995272389
MOST                    
1 27843U 03031D   26171.44953571  .00000034  00000+0  35488-4 0  9994
2 27843  98.7044 179.1301 0008815 239.9123 120.1181 14.21322997191174
SCISAT 1                
1 27858U 03036A   26171.39952715  .00000392  00000+0  54783-4 0  9994
2 27858  73.9283 164.9602 0008450 234.8607 125.1778 14.81450192231922
SWIFT                   
1 28485U 04047A   26171.30342133  .00046405  00000+0  38117-3 0  9999
2 28485  20.5515 160.8559 0001492 338.7604  21.2780 15.68583947187358
HINODE (SOLAR-B)        
1 29479U 06041A   26171.45569669  .00000470  00000+0  89260-4 0  9998
2 29479  98.0544 187.5601 0015947 278.4847  81.4551 14.68626564 55357
SHIJIAN-6 02A (SJ-6 02A)
1 29505U 06046A   26171.52167664  .00008438  00000+0  43050-3 0  9998
2 29505  97.6354 212.6138 0004495 117.6455 242.5234 15.16979653 72778
SHIJIAN-6 02B (SJ-6 02B)
1 29506U 06046B   26171.54538437  .00001112  00000+0  90797-4 0  9994
2 29506  97.7155 200.5838 0015435  50.9711 309.2884 15.01384366 71240
FGRST (GLAST)           
1 33053U 08029A   26171.30606279  .00002090  00000+0  70461-4 0  9995
2 33053  25.5800 182.8251 0008045   5.8288 354.2343 15.23956518996318
SDO                     
1 36395U 10005A   26170.38591488 -.00000089  00000+0  00000+0 0  9990
2 36395  34.6572  86.3078 0001831  48.8927 169.2237  1.00270271 60082
CRYOSAT 2               
1 36508U 10013A   26171.45859612  .00000175  00000+0  42616-4 0  9999
2 36508  92.0358 278.0966 0002136  91.0529 269.0923 14.51900248858553
X-SAT                   
1 37389U 11015C   26171.52517503  .00000078  00000+0  50490-4 0  9999
2 37389  98.3516 148.3900 0013689 338.6967  21.3642 14.25207087788151
GCOM-W1 (SHIZUKU)       
1 38337U 12025A   26171.40744943  .00000335  00000+0  84254-4 0  9993
2 38337  98.2020 111.9143 0001751  73.2546  39.7525 14.57127079749507
NUSTAR                  
1 38358U 12031A   26171.50003471  .00006357  00000+0  33895-3 0  9992
2 38358   6.0277   9.2974 0007207 165.8701 326.2889 15.08829417  1303
NEOSSAT                 
1 39089U 13009D   26171.41509429  .00000098  00000+0  48537-4 0  9990
2 39089  98.4179 351.3709 0010010 233.0674 126.9596 14.35827352697206
BRITE-AUSTRIA           
1 39091U 13009F   26171.48176721  .00000114  00000+0  53431-4 0  9993
2 39091  98.3997 350.8358 0009287 225.5758 134.4669 14.36543158697523
IRIS                    
1 39197U 13033A   26170.52181357  .00000738  00000+0  90715-4 0  9990
2 39197  97.9329   9.7915 0023380 313.8607  46.0676 14.85888859700724
HISAKI (SPRINT-A)       
1 39253U 13049A   26171.36948668  .00000096  00000+0  45696-4 0  9994
2 39253  29.7174 203.8331 0136848  42.6521 318.4585 13.55544968631851
CASSIOPE                
1 39265U 13055A   26171.44198088  .00046037 -45328-6  50105-3 0  9991
2 39265  80.9141  62.7685 0291626  51.5344 311.1666 15.25473611668168
STSAT-3                 
1 39422U 13066G   26171.50864979  .00002261  00000+0  17340-3 0  9999
2 39422  97.6226 141.3436 0010977  36.4551 323.7420 15.02771486684701
SWARM B                 
1 39451U 13067A   26171.47264617  .00002821  00000+0  10029-3 0  9990
2 39451  87.7443 341.3181 0003214  83.7057 276.4559 15.28568230683744
SWARM A                 
1 39452U 13067B   26171.38119780  .00008694  00000+0  14908-3 0  9995
2 39452  87.3318  55.0548 0003059  96.4779 263.6830 15.51006351706740
SWARM C                 
1 39453U 13067C   26171.38108794  .00008759  00000+0  15021-3 0  9998
2 39453  87.3318  53.6359 0003064  96.5296 263.6314 15.51004755706705
BRITE-CA1 (TORONTO)     
1 40020U 14033L   26171.36706416  .00000559  00000+0  91945-4 0  9997
2 40020  97.9744 300.2364 0077215 266.6473  92.5899 14.72680489642689
OCO 2                   
1 40059U 14035A   26171.38294918  .00000282  00000+0  72614-4 0  9997
2 40059  98.2017 112.6273 0001513  84.7645 275.3726 14.57113403636515
BRITE-PL2 (HEWELIUSZ)   
1 40119U 14049B   26171.31895785  .00001722  00000+0  16422-3 0  9995
2 40119  97.9101 283.3430 0015385  99.1118 261.1844 14.94603402641918
MMS 1                   
1 40482U 15011A   26171.50003471 -.00000547  00000+0  00000+0 0  9998
2 40482  72.1541 348.7586 8320937 167.4629 276.5732  0.28304487  1399
MMS 2                   
1 40483U 15011B   26171.50003471 -.00000547  00000+0  00000+0 0  9999
2 40483  72.1550 348.7610 8322367 167.4660 276.5842  0.28300138  1393
MMS 3                   
1 40484U 15011C   26171.50003471 -.00000547  00000+0  00000+0 0  9990
2 40484  72.1584 348.7655 8320989 167.4588 276.5750  0.28298826  1395
MMS 4                   
1 40485U 15011D   26171.50003471 -.00000547  00000+0  00000+0 0  9991
2 40485  72.1513 348.7612 8320747 167.4717 276.5466  0.28305080  1392
ASTROSAT                
1 40930U 15052A   26171.05152111  .00001334  00000+0  80735-4 0  9999
2 40930   5.9956 134.7258 0007591  74.7193 285.3774 14.82511277580259
DAMPE                   
1 41173U 15078A   26171.50216890  .00001048  00000+0  37749-4 0  9991
2 41173  97.4557 176.9861 0013728  67.0782 293.1906 15.30792737585051
PISAT                   
1 41784U 16059B   26171.41355948  .00000622  00000+0  11350-3 0  9993
2 41784  97.8178 171.7277 0028650 192.2677 167.7834 14.68987845520219
HXMT (HUIYAN)           
1 42758U 17034A   26171.42325657  .00002234  00000+0  11674-3 0  9994
2 42758  43.0125 165.0212 0031022 167.9721 192.1874 15.18492051498156
FLYING LAPTOP           
1 42831U 17042G   26171.51838903  .00002709  00000+0  21497-3 0  9999
2 42831  97.4706 326.9229 0019743 111.0767 249.2571 15.01163772486958
ZHANGHENG 1-01 (CSES-1) 
1 43194U 18015C   26171.49455920  .00005547  00000+0  25368-3 0  9998
2 43194  97.6878 337.2175 0017110 253.9884 105.9466 15.20846052465149
SALSAT                  
1 46495U 20068K   26170.95810387  .00006379  00000+0  22355-3 0  9995
2 46495  97.8854 174.1914 0007892 296.5001  63.5428 15.29832652315782
IXPE                    
1 49954U 21121A   26171.41668980  .00008579  00000+0  45370-3 0  9997
2 49954   0.2296 293.4932 0007192 124.1849 157.3401 15.10273055  5456
SMILE                   
1 69123U 26109A   26158.38327019 -.00000041  00000+0 -36778-3 0  9994
2 69123  69.9787 209.3069 3310191 288.5544  45.7342  7.54049028  2480
